[{"OBJECT_NAME":"YAOGAN-32 02B","OBJECT_ID":"2021-099B","EPOCH":"2026-03-09T22:33:19.291104","MEAN_MOTION":14.64050838,"ECCENTRICITY":0.00012785,"INCLINATION":98.2293,"RA_OF_ASC_NODE":202.7352,"ARG_OF_PERICENTER":124.0127,"MEAN_ANOMALY":236.1197,"EPHEMERIS_TYPE":0,"CLASSIFICATION_TYPE":"U","NORAD_CAT_ID":49384,"ELEMENT_SET_NO":999,"REV_AT_EPOCH":23184,"BSTAR":0.000246305,"MEAN_MOTION_DOT":1.244e-5,"MEAN_MOTION_DDOT":0},{"OBJECT_NAME":"COSMOS 2251 DEB","OBJECT_ID":"1993-036HA","EPOCH":"2026-03-09T21:10:53.462208","MEAN_MOTION":14.60940832,"ECCENTRICITY":0.00182347,"INCLINATION":74.0264,"RA_OF_ASC_NODE":352.8518,"ARG_OF_PERICENTER":68.2028,"MEAN_ANOMALY":354.5966,"EPHEMERIS_TYPE":0,"CLASSIFICATION_TYPE":"U","NORAD_CAT_ID":34015,"ELEMENT_SET_NO":999,"REV_AT_EPOCH":89803,"BSTAR":0.0012628798,"MEAN_MOTION_DOT":6.177e-5,"MEAN_MOTION_DDOT":0}]
